#aV2007  7  1  0  0   .00000000      96 DD+AD WGS84 FIT  NGA
## 1434       .00000000   900.00000000 54282  .0000000000000
+   30     1  2  3  4  5  6  7  8  9 10 11 12 13 14 16 17 18
+         19 20 21 22 23 24 25 26 27 28 29 30 31  0  0  0  0
+          0  0  0  0  0  0  0  0  0  0  0  0  0  0  0  0  0
+          0  0  0  0  0  0  0  0  0  0  0  0  0  0  0  0  0
+          0  0  0  0  0  0  0  0  0  0  0  0  0  0  0  0  0
++         0  0  0  0  0  0  0  0  0  0  0  0  0  0  0  0  0
++         0  0  0  0  0  0  0  0  0  0  0  0  0  0  0  0  0
++         0  0  0  0  0  0  0  0  0  0  0  0  0  0  0  0  0
++         0  0  0  0  0  0  0  0  0  0  0  0  0  0  0  0  0
++         0  0  0  0  0  0  0  0  0  0  0  0  0  0  0  0  0
%c cc cc ccc ccc cccc cccc cccc cccc ccccc ccccc ccccc ccccc
%c cc cc ccc ccc cccc cccc cccc cccc ccccc ccccc ccccc ccccc
%f  0.0000000  0.000000000  0.00000000000  0.000000000000000
%f  0.0000000  0.000000000  0.00000000000  0.000000000000000
%i    0    0    0    0      0      0      0      0         0
%i    0    0    0    0      0      0      0      0         0
/*      NGA, ST. LOUIS,MO.                                  
/*   EPHEMERIS COMPUTED FROM  3 DAYS OF DATA                
/* CCCCCCCCCCCCCCCCCCCCCCCCCCCCCCCCCCCCCCCCCCCCCCCCCCCCCCCCC
/* CCCCCCCCCCCCCCCCCCCCCCCCCCCCCCCCCCCCCCCCCCCCCCCCCCCCCCCCC
*  2007  7  1 14  0   .00000000                                                 
P  1 -18053.047601  -9567.979944 -16797.353783    137.343234                    
V  1  -9551.182476 -19460.073961  21025.485822       .022257                    
P  2  17540.904626  -2703.206758 -19875.657486    118.313340                    
V  2 -10226.708766  22782.449249 -12542.243114       .028431                    
P  3 -19065.931944  -2035.467570  18299.799624     80.269895                    
V  3 -13119.283899 -19798.830152 -15352.427881       .054662                    
P  4  12602.948832   9300.871883 -21492.755613      8.165228                    
V  4 -13371.666851  23715.380658   2783.118463      -.011961                    
P  5  11880.842946 -15122.953399 -18498.299759    125.051308                    
V  5  23160.269131  -1133.710019  16164.185699       .481246                    
P  6  -3460.157622 -22562.237926 -13357.308076    226.828956                    
V  6  12255.290034  12646.697289 -24228.748827       .077353                    
P  7  -6874.982120 -23084.509007 -10779.991501    227.689126                    
V  7  11028.182685   9644.616887 -26880.363479      -.196016                    
P  8   4246.597932  17862.862430  18906.003338   -113.194041                    
V  8 -13547.346846  20291.004475 -16462.879068      -.016139                    
P  9  14671.341762 -20968.616611   6065.718206     76.823484                    
V  9  -1142.712007   8909.436515  30754.457852       .015721                    
P 10  26720.961663   -696.739438    410.993615    104.078596                    
V 10    692.298907   2285.997656 -31717.307306       .005284                    
P 11 -12241.670035  22640.283336   5801.782377     19.583708                    
V 11  -2378.898813  -8817.212589  29143.077602       .008282                    
P 12  17557.546936 -11817.568988 -15901.697001    -48.226378                    
V 12  20473.511850   1125.643235  21687.655090      -.010142                    
P 13   3678.310965  23003.919945 -12895.213411    186.224625                    
V 13  -9294.518725 -13258.666682 -26490.089191       .032686                    
P 14 -16062.727776 -20662.307137  -4706.144652     27.705946                    
V 14  -1545.757293  -6130.319223  31560.472051       .019341                    
P 16 -25975.619002  -2881.182556  -5102.456805    159.563934                    
V 16   6486.745630  -2694.091276 -30843.300542       .027060                    
P 17  15428.916638  21569.183622  -2435.329205     62.740077                    
V 17   -690.852060   4084.818110  31433.343463      -.013253                    
P 18  -4035.681935 -15291.706032  21515.523751   -245.749260                    
V 18  26973.863693   -277.424036   4551.684022       .011811                    
P 19 -13430.303070   7422.980342  21780.745471     47.256934                    
V 19 -13168.263381 -24059.442676    201.184987       .030558                    
P 20 -15391.632513  13136.408138 -17295.227922    -26.267685                    
V 20 -21858.004046   -696.608218  19071.686472      -.004358                    
P 21   2244.897641 -22946.772303  12781.097090     78.356965                    
V 21  10814.596750 -12611.901360 -25377.336260       .002451                    
P 22 -16802.840323 -12122.968728  16793.304932    188.968951                    
V 22  21060.861744  -1764.946380  19943.309535       .016463                    
P 23  -4852.372465  17357.958465 -19519.381092    178.203415                    
V 23 -14191.613454 -20189.079644 -14694.776680       .031339                    
P 24  12266.523284 -23656.161067   2155.556739     11.766653                    
V 24   3589.708334   -743.330270 -31300.412712       .030055                    
P 25  -6176.956130  25380.888189   5603.856693    345.347637                    
V 25  -4894.795947   5148.655386 -30581.525941       .191008                    
P 26  14570.838006  -3020.427563  21615.298682   -281.759052                    
V 26  14165.498164  24579.629491  -5452.224242      -.218128                    
P 27   -783.601956  23455.627712  12854.635908    119.993608                    
V 27  -8300.361673  13127.805906 -25989.943671       .022726                    
P 28  13515.957050  13148.886406  19179.726688     -2.112445                    
V 28 -23499.075385   1481.994190  15486.450660      -.007456                    
P 29  16801.395040    917.353753  20849.599174      4.171870                    
V 29  13390.471398  22103.946476 -11511.188539       .002536                    
P 30   5474.126225 -15634.005185 -21056.714000     38.234831                    
V 30  26078.104596  -1200.436173   7898.207797       .011638                    
P 31 -13271.582977  -7143.441469 -21675.094348     16.781346                    
V 31  12965.791709 -24796.345547    301.794236      -.009146                    
EOF
